[{"OBJECT_NAME":"STARLINK-1807","OBJECT_ID":"2020-073AN","EPOCH":"2026-03-09T15:34:45.873120","MEAN_MOTION":15.23578372,"ECCENTRICITY":0.0005019,"INCLINATION":53.0589,"RA_OF_ASC_NODE":228.5688,"ARG_OF_PERICENTER":167.7565,"MEAN_ANOMALY":192.3554,"EPHEMERIS_TYPE":0,"CLASSIFICATION_TYPE":"U","NORAD_CAT_ID":46706,"ELEMENT_SET_NO":999,"REV_AT_EPOCH":29731,"BSTAR":0.0017212,"MEAN_MOTION_DOT":0.00041618,"MEAN_MOTION_DDOT":0},{"OBJECT_NAME":"OBJECT A","OBJECT_ID":"2024-203A","EPOCH":"2026-03-09T23:31:20.812800","MEAN_MOTION":15.27300571,"ECCENTRICITY":0.00108989,"INCLINATION":97.4288,"RA_OF_ASC_NODE":139.5608,"ARG_OF_PERICENTER":322.6893,"MEAN_ANOMALY":37.3588,"EPHEMERIS_TYPE":0,"CLASSIFICATION_TYPE":"U","NORAD_CAT_ID":61869,"ELEMENT_SET_NO":999,"REV_AT_EPOCH":7380,"BSTAR":0.00061472876,"MEAN_MOTION_DOT":0.00016411,"MEAN_MOTION_DDOT":0}]
